PROXIMA II              
1 43696U 18088G   22101.43490123  .00009646  00000+0  38033-3 0  9999
2 43696  85.0348 357.6627 0017950  10.3392 349.8217 15.25268014189741
FACSAT-1                
1 43721U 18096C   22101.75519352  .00023351  00000+0  72111-3 0  9992
2 43721  97.3536 181.7708 0013409 289.8768 189.5233 15.33459785187747
CENTAURI-2              
1 43722U 18096D   22101.52930414  .00024934  00000+0  71375-3 0  9993
2 43722  97.3582 183.1878 0013181 288.2615  71.7194 15.35844918187795
INNOSAT-2               
1 43738U 18096V   22101.75296976  .00051821  00000+0  11799-2 0  9991
2 43738  97.3667 189.5301 0015918 277.1382 181.7386 15.42655124188204
SIRION PATHFINDER-2     
1 43759U 18099B   22101.42976148  .00001668  00000+0  15320-3 0  9996
2 43759  97.6261 169.9458 0015278 123.0746 237.1945 14.96071202183026
CORVUS BC4              
1 43767U 18099K   22101.42390438  .00001586  00000+0  14818-3 0  9997
2 43767  97.6223 168.5440 0012781 127.6238 232.6145 14.95471865182952
MOVE-II                 
1 43780U 18099Y   22101.45930642  .00005263  00000+0  46042-3 0  9992
2 43780  97.6290 170.5207 0014525 133.6262 226.6168 14.97072874183034
SPACEBEE-7              
1 43816U 18099BL  22101.44431253  .00003987  00000+0  35000-3 0  9998
2 43816  97.6307 171.2242 0014076 118.6639 241.6001 14.97088407182628
SPACEBEE-5              
1 43817U 18099BM  22101.51246705  .00010837  00000+0  87979-3 0  9997
2 43817  97.6427 173.7391 0011979 119.2008 241.0415 14.99748845182736
SPACEBEE-6              
1 43818U 18099BN  22101.44114700  .00005860  00000+0  50185-3 0  9998
2 43818  97.6349 171.9607 0013744 117.4462 242.8160 14.97867577182802
SHIELDS 1               
1 43850U 18104B   22101.43447766  .00004305  00000+0  18109-3 0  9994
2 43850  85.0246  96.6710 0015811 144.1923 216.0383 15.22970075184303
STF-1                   
1 43852U 18104D   22101.71012947  .00011105  00000+0  44036-3 0  9990
2 43852  85.0278  96.9621 0014709 153.6232 206.5763 15.25143031184366
ZACUBE-2                
1 43907U 18111AH  22101.80561058  .00006562  00000+0  25193-3 0  9995
2 43907  97.1990 350.4895 0019000 320.5152 104.2935 15.26619704183122
LUME 1                  
1 43908U 18111AJ  22101.59093611  .00011277  00000+0  40170-3 0  9998
2 43908  97.2006 351.5340 0017624 316.7683  43.2173 15.28944789183172
AOBA VELOX-IV           
1 43940U 19003J   22101.81607199  .00024269  00000+0  74955-3 0  9995
2 43940  97.1377 139.7946 0019719  30.7357 329.5036 15.33339855179906
MOVE-IIB                
1 44398U 19038N   22101.90247456  .00016904  00000+0  85551-3 0  9998
2 44398  97.6228  70.7534 0022712   4.6012 355.5426 15.16860054152944
SONATE                  
1 44400U 19038Q   22101.58503966  .00006929  00000+0  38362-3 0  9991
2 44400  97.6305  69.8510 0024453   8.0579 352.1030 15.13902667152811
LUCKY-7                 
1 44406U 19038W   22101.48814521  .00007138  00000+0  38707-3 0  9994
2 44406  97.6321  70.1846 0023311   7.3782 352.7788 15.14653409152827
BEESAT 9                
1 44412U 19038AC  22101.86463355  .00009689  00000+0  51052-3 0  9999
2 44412  97.6293  70.7497 0021095  11.0323 349.1367 15.15613675152601
JAISAT-1                
1 44419U 19038F   22101.47525782  .00010599  00000+0  55096-3 0  9990
2 44419  97.6299  71.1435 0019983  10.1877 349.9756 15.16086172152908
DUCHIFAT-3              
1 44854U 19089C   22101.80791782  .00004510  00000+0  35684-3 0  9998
2 44854  36.9639 135.2893 0007405  32.9403 134.3366 15.00529403127916
EYESAT-NANO             
1 44877U 19092E   22101.50768969  .00012521  00000+0  56854-3 0  9998
2 44877  97.4648 286.4202 0011430 226.3855 133.6433 15.20868304128184
ORBITAL FACTORY 2 (OF-2)
1 45113U 19071C   22101.49545157  .00026648  00000+0  62414-3 0  9993
2 45113  51.6406  27.9669 0008270 291.7367  68.2738 15.41880415123039
M2 PATHFINDER           
1 45727U 20037E   22101.48452575  .00001609  00000+0  16491-3 0  9992
2 45727  97.7309 278.1931 0011636 259.3974 100.5958 14.91797830 96843
NETSAT-4                
1 46504U 20068U   22101.54385762  .00003563  00000+0  26930-3 0  9990
2 46504  97.7184  41.5085 0011309 180.1387 179.9825 15.02971149 83991
NETSAT-3                
1 46505U 20068V   22101.55742288  .00003966  00000+0  29943-3 0  9996
2 46505  97.7172  41.4524 0011024 190.3393 169.7616 15.02943575 84000
NETSAT-1                
1 46506U 20068W   22101.57166614  .00004707  00000+0  35504-3 0  9996
2 46506  97.7146  41.4039 0009202 205.0992 154.9777 15.02900088 84003
NETSAT-2                
1 46507U 20068X   22101.57985732  .00004856  00000+0  36655-3 0  9990
2 46507  97.7139  41.4075 0008239 213.3675 146.7039 15.02860165 83959
SPOC                    
1 46921U 98067RR  22101.50046744  .00123298  00000+0  84302-3 0  9992
2 46921  51.6339 276.7848 0003281 252.2007 107.8634 15.73893394 81397
BOBCAT-1                
1 46922U 98067RS  22098.90122068  .11905367  12464-4  72310-3 0  9991
2 46922  51.6240 272.7697 0008754 281.6685  78.3359 16.41269594 81172
NEUTRON-1               
1 46923U 98067RT  22101.22220746  .00130544  00000+0  89957-3 0  9992
2 46923  51.6346 278.6875 0003556 249.6904 110.3713 15.73683711 81363
DESCENT                 
1 46927U 98067RX  22101.51606648  .00136207  00000+0  89507-3 0  9990
2 46927  51.6334 276.8925 0004310 251.3362 108.7170 15.74760728 81326
SAI-1 NANOCONNECT-2     
1 47701U 21015C   22089.17476740 -.00000073  00000+0  00000+0 0  9994
2 47701  97.4113 166.5771 0015583   2.4776 357.8237 15.25181835 60120
WARP-01                 
1 47924U 98067SA  22101.76697633  .00409565  00000+0  14578-2 0  9994
2 47924  51.6277 279.2207 0007539 264.1831  95.8314 15.87274431 61373
RSP-01                  
1 47925U 98067SB  22101.79002035  .00156129  00000+0  10789-2 0  9999
2 47925  51.6355 284.7341 0003872 258.4539 101.6025 15.73527864 61289
TAUSAT-1                
1 47926U 98067SC  22100.98578780  .00306404  00000+0  12073-2 0  9996
2 47926  51.6267 282.2802 0007004 269.9858  90.0343 15.85442601 61236
TSURU                   
1 47927U 98067SD  22101.51887337  .00113460  00000+0  91830-3 0  9995
2 47927  51.6353 288.1701 0002708 251.2824 108.7879 15.69938880 61219
STARS-EC                
1 47928U 98067SE  22101.54720583  .01140678  70172-3  18558-2 0  9996
2 47928  51.6263 277.7323 0011495 281.0923  78.8795 16.02718012 61336
MAYA-2                  
1 47929U 98067SF  22100.94400038  .00109138  00000+0  89307-3 0  9995
2 47929  51.6355 291.0795 0002622 246.4773 113.5948 15.69691565 61085
HIROGARI (OPUSAT-II)    
1 47930U 98067SG  22101.74696179  .01554996  16570-2  18125-2 0  9997
2 47930  51.6207 274.5398 0012296 288.6123  71.3554 16.08327742 61411
GUARANISAT-1            
1 47931U 98067SH  22101.82434502  .00098499  00000+0  79485-3 0  9992
2 47931  51.6365 286.4761 0002699 254.8992 105.1707 15.70072730 61269
SMOG-1                  
1 47964U 21022AJ  22101.29102711  .00008819  00000+0  55966-3 0  9995
2 47964  97.5359   3.0976 0019238  12.1445 348.0244 15.08970005 56758
MMSATS-1                
1 47976U 98067SJ  22101.85044921  .00026344  00000+0  38068-3 0  9998
2 47976  51.6433 298.6135 0002885 143.8129 216.3055 15.55746819 59885
BCCSAT-1                
1 48041U 21022AK  22101.30765580  .00007600  00000+0  49323-3 0  9990
2 48041  97.5373   2.8122 0015760  12.0962 348.0642 15.08242097 56711
RAMSAT                  
1 48850U 98067SL  22101.26779192  .00057457  00000+0  66253-3 0  9996
2 48850  51.6395 298.4829 0004576 190.4432 169.6468 15.61364644 46801
BD-28                   
1 48867U 98067SN  22101.81232271  .00067356  00000+0  72636-3 0  9998
2 48867  51.6360 294.5999 0004580 221.0247 139.0404 15.63024545 45654
MIR-SAT 1               
1 48868U 98067SP  22101.76595351  .00942357  42821-3  19418-2 0  9996
2 48868  51.6242 282.9315 0011700 275.7744  84.1931 15.98573558 45833
1998-067SR              
1 49272U 98067SR  22101.57421356  .00063695  00000+0  76438-3 0  9992
2 49272  51.6381 300.5098 0001821  94.7627 265.3574 15.60289163 29196
1998-067SS              
1 49273U 98067SS  22101.01489926  .00085899  00000+0  91275-3 0  9995
2 49273  51.6383 302.0247 0000911 139.1261 220.9802 15.63309350 29127
1998-067ST              
1 49274U 98067ST  22101.79140179  .00088325  00000+0  93974-3 0  9990
2 49274  51.6374 298.2089 0000641 140.1734 219.9308 15.63264366 29244
CUAVA-1                 
1 49275U 98067SU  22101.77026648  .00074187  00000+0  83322-3 0  9990
2 49275  51.6419 298.6249 0001764 125.8809 323.2017 15.61948095 29182
